[{"OBJECT_NAME":"ONEWEB-0675","OBJECT_ID":"2023-029AQ","EPOCH":"2026-04-28T05:51:18.949248","MEAN_MOTION":13.19724995,"ECCENTRICITY":0.0001478,"INCLINATION":87.9151,"RA_OF_ASC_NODE":314.9382,"ARG_OF_PERICENTER":87.0832,"MEAN_ANOMALY":273.047,"EPHEMERIS_TYPE":0,"CLASSIFICATION_TYPE":"U","NORAD_CAT_ID":55834,"ELEMENT_SET_NO":999,"REV_AT_EPOCH":15233,"BSTAR":0.00019042,"MEAN_MOTION_DOT":8.9e-07,"MEAN_MOTION_DDOT":0.0},{"OBJECT_NAME":"ONEWEB-0720","OBJECT_ID":"2023-029AR","EPOCH":"2026-04-28T05:39:56.485152","MEAN_MOTION":13.19724614,"ECCENTRICITY":0.0001934,"INCLINATION":87.915,"RA_OF_ASC_NODE":314.9405,"ARG_OF_PERICENTER":79.4824,"MEAN_ANOMALY":280.6526,"EPHEMERIS_TYPE":0,"CLASSIFICATION_TYPE":"U","NORAD_CAT_ID":55835,"ELEMENT_SET_NO":999,"REV_AT_EPOCH":15225,"BSTAR":2.5214999999999998e-05,"MEAN_MOTION_DOT":2.3e-07,"MEAN_MOTION_DDOT":0.0},{"OBJECT_NAME":"ONEWEB-0537","OBJECT_ID":"2023-043A","EPOCH":"2026-04-28T06:21:01.508256","MEAN_MOTION":13.16594661,"ECCENTRICITY":0.0001745,"INCLINATION":87.9084,"RA_OF_ASC_NODE":238.6859,"ARG_OF_PERICENTER":107.0243,"MEAN_ANOMALY":253.1079,"EPHEMERIS_TYPE":0,"CLASSIFICATION_TYPE":"U","NORAD_CAT_ID":56046,"ELEMENT_SET_NO":999,"REV_AT_EPOCH":15239,"BSTAR":0.00012567,"MEAN_MOTION_DOT":6.1e-07,"MEAN_MOTION_DDOT":0.0},{"OBJECT_NAME":"ONEWEB-0538","OBJECT_ID":"2023-043B","EPOCH":"2026-04-28T06:11:54.034656","MEAN_MOTION":13.16592572,"ECCENTRICITY":0.000165,"INCLINATION":87.9085,"RA_OF_ASC_NODE":238.6891,"ARG_OF_PERICENTER":97.6708,"MEAN_ANOMALY":262.4611,"EPHEMERIS_TYPE":0,"CLASSIFICATION_TYPE":"U","NORAD_CAT_ID":56047,"ELEMENT_SET_NO":999,"REV_AT_EPOCH":15240,"BSTAR":0.00032258,"MEAN_MOTION_DOT":1.36e-06,"MEAN_MOTION_DDOT":0.0},{"OBJECT_NAME":"ONEWEB-0546","OBJECT_ID":"2023-043C","EPOCH":"2026-04-28T07:43:06.011904","MEAN_MOTION":13.16594355,"ECCENTRICITY":0.0001609,"INCLINATION":87.9084,"RA_OF_ASC_NODE":238.6761,"ARG_OF_PERICENTER":122.6983,"MEAN_ANOMALY":237.4303,"EPHEMERIS_TYPE":0,"CLASSIFICATION_TYPE":"U","NORAD_CAT_ID":56048,"ELEMENT_SET_NO":999,"REV_AT_EPOCH":15240,"BSTAR":0.00030672,"MEAN_MOTION_DOT":1.3e-06,"MEAN_MOTION_DDOT":0.0},{"OBJECT_NAME":"ONEWEB-0547","OBJECT_ID":"2023-043D","EPOCH":"2026-04-28T06:55:25.663872","MEAN_MOTION":13.21825919,"ECCENTRICITY":0.0001834,"INCLINATION":87.9228,"RA_OF_ASC_NODE":253.9066,"ARG_OF_PERICENTER":93.983,"MEAN_ANOMALY":266.1514,"EPHEMERIS_TYPE":0,"CLASSIFICATION_TYPE":"U","NORAD_CAT_ID":56049,"ELEMENT_SET_NO":999,"REV_AT_EPOCH":15163,"BSTAR":2.0494e-05,"MEAN_MOTION_DOT":2.1e-07,"MEAN_MOTION_DDOT":0.0},{"OBJECT_NAME":"ONEWEB-0548","OBJECT_ID":"2023-043E","EPOCH":"2026-04-28T06:28:58.526976","MEAN_MOTION":13.16592993,"ECCENTRICITY":0.0002356,"INCLINATION":87.9085,"RA_OF_ASC_NODE":238.6838,"ARG_OF_PERICENTER":107.1373,"MEAN_ANOMALY":253.0016,"EPHEMERIS_TYPE":0,"CLASSIFICATION_TYPE":"U","NORAD_CAT_ID":56050,"ELEMENT_SET_NO":999,"REV_AT_EPOCH":15239,"BSTAR":3.655900000000001e-05,"MEAN_MOTION_DOT":2.7e-07,"MEAN_MOTION_DDOT":0.0},{"OBJECT_NAME":"ONEWEB-0549","OBJECT_ID":"2023-043F","EPOCH":"2026-04-28T03:08:57.210144","MEAN_MOTION":13.21827621,"ECCENTRICITY":0.0001708,"INCLINATION":87.9216,"RA_OF_ASC_NODE":253.947,"ARG_OF_PERICENTER":93.2189,"MEAN_ANOMALY":266.914,"EPHEMERIS_TYPE":0,"CLASSIFICATION_TYPE":"U","NORAD_CAT_ID":56051,"ELEMENT_SET_NO":999,"REV_AT_EPOCH":15161,"BSTAR":-7.1604e-05,"MEAN_MOTION_DOT":-1.7e-07,"MEAN_MOTION_DDOT":0.0},{"OBJECT_NAME":"ONEWEB-0550","OBJECT_ID":"2023-043G","EPOCH":"2026-04-28T02:49:34.780224","MEAN_MOTION":13.21827467,"ECCENTRICITY":0.0002155,"INCLINATION":87.9218,"RA_OF_ASC_NODE":253.9462,"ARG_OF_PERICENTER":103.4563,"MEAN_ANOMALY":256.6812,"EPHEMERIS_TYPE":0,"CLASSIFICATION_TYPE":"U","NORAD_CAT_ID":56052,"ELEMENT_SET_NO":999,"REV_AT_EPOCH":15161,"BSTAR":7.9058e-05,"MEAN_MOTION_DOT":4.6e-07,"MEAN_MOTION_DDOT":0.0},{"OBJECT_NAME":"ONEWEB-0551","OBJECT_ID":"2023-043H","EPOCH":"2026-04-28T02:37:42.406176","MEAN_MOTION":13.15548777,"ECCENTRICITY":0.0001673,"INCLINATION":87.8952,"RA_OF_ASC_NODE":269.2138,"ARG_OF_PERICENTER":87.9984,"MEAN_ANOMALY":272.1338,"EPHEMERIS_TYPE":0,"CLASSIFICATION_TYPE":"U","NORAD_CAT_ID":56053,"ELEMENT_SET_NO":999,"REV_AT_EPOCH":14981,"BSTAR":0.00043475999999999996,"MEAN_MOTION_DOT":1.77e-06,"MEAN_MOTION_DDOT":0.0},{"OBJECT_NAME":"ONEWEB-0552","OBJECT_ID":"2023-043J","EPOCH":"2026-04-28T02:42:18.674496","MEAN_MOTION":13.21827393,"ECCENTRICITY":0.0001975,"INCLINATION":87.9215,"RA_OF_ASC_NODE":253.954,"ARG_OF_PERICENTER":94.758,"MEAN_ANOMALY":265.378,"EPHEMERIS_TYPE":0,"CLASSIFICATION_TYPE":"U","NORAD_CAT_ID":56054,"ELEMENT_SET_NO":999,"REV_AT_EPOCH":15161,"BSTAR":8.346200000000001e-05,"MEAN_MOTION_DOT":4.7e-07,"MEAN_MOTION_DDOT":0.0},{"OBJECT_NAME":"ONEWEB-0553","OBJECT_ID":"2023-043K","EPOCH":"2026-04-28T07:52:13.215936","MEAN_MOTION":13.16595014,"ECCENTRICITY":0.000186,"INCLINATION":87.9085,"RA_OF_ASC_NODE":238.6761,"ARG_OF_PERICENTER":114.5091,"MEAN_ANOMALY":245.6234,"EPHEMERIS_TYPE":0,"CLASSIFICATION_TYPE":"U","NORAD_CAT_ID":56055,"ELEMENT_SET_NO":999,"REV_AT_EPOCH":15241,"BSTAR":0.00028534,"MEAN_MOTION_DOT":1.22e-06,"MEAN_MOTION_DDOT":0.0},{"OBJECT_NAME":"ONEWEB-0554","OBJECT_ID":"2023-043L","EPOCH":"2026-04-28T07:33:59.213088","MEAN_MOTION":13.16594245,"ECCENTRICITY":0.0002173,"INCLINATION":87.9083,"RA_OF_ASC_NODE":238.6882,"ARG_OF_PERICENTER":107.1428,"MEAN_ANOMALY":252.9941,"EPHEMERIS_TYPE":0,"CLASSIFICATION_TYPE":"U","NORAD_CAT_ID":56056,"ELEMENT_SET_NO":999,"REV_AT_EPOCH":15239,"BSTAR":0.00017168,"MEAN_MOTION_DOT":7.8e-07,"MEAN_MOTION_DDOT":0.0},{"OBJECT_NAME":"ONEWEB-0555","OBJECT_ID":"2023-043M","EPOCH":"2026-04-28T06:39:14.815584","MEAN_MOTION":13.16592885,"ECCENTRICITY":0.0001736,"INCLINATION":87.9087,"RA_OF_ASC_NODE":238.6818,"ARG_OF_PERICENTER":120.7042,"MEAN_ANOMALY":239.426,"EPHEMERIS_TYPE":0,"CLASSIFICATION_TYPE":"U","NORAD_CAT_ID":56057,"ELEMENT_SET_NO":999,"REV_AT_EPOCH":15239,"BSTAR":2.4620000000000003e-06,"MEAN_MOTION_DOT":1.4e-07,"MEAN_MOTION_DDOT":0.0},{"OBJECT_NAME":"ONEWEB-0557","OBJECT_ID":"2023-043N","EPOCH":"2026-04-28T06:59:47.112000","MEAN_MOTION":13.16594148,"ECCENTRICITY":0.0002788,"INCLINATION":87.9081,"RA_OF_ASC_NODE":238.69,"ARG_OF_PERICENTER":125.5071,"MEAN_ANOMALY":234.632,"EPHEMERIS_TYPE":0,"CLASSIFICATION_TYPE":"U","NORAD_CAT_ID":56058,"ELEMENT_SET_NO":999,"REV_AT_EPOCH":15239,"BSTAR":-3.0273000000000002e-06,"MEAN_MOTION_DOT":1.2e-07,"MEAN_MOTION_DDOT":0.0},{"OBJECT_NAME":"ONEWEB-0558","OBJECT_ID":"2023-043P","EPOCH":"2026-04-28T07:59:35.844864","MEAN_MOTION":13.21825588,"ECCENTRICITY":0.000175,"INCLINATION":87.9219,"RA_OF_ASC_NODE":253.9037,"ARG_OF_PERICENTER":85.9062,"MEAN_ANOMALY":274.2272,"EPHEMERIS_TYPE":0,"CLASSIFICATION_TYPE":"U","NORAD_CAT_ID":56059,"ELEMENT_SET_NO":999,"REV_AT_EPOCH":15165,"BSTAR":-0.00054294,"MEAN_MOTION_DOT":-2.11e-06,"MEAN_MOTION_DDOT":0.0}]