ONEWEB-0675             
1 55834U 23029AQ  26118.24396932  .00000089  00000+0  19042-3 0  9992
2 55834  87.9151 314.9382 0001478  87.0832 273.0470 13.19724995152333
ONEWEB-0720             
1 55835U 23029AR  26118.23607043  .00000023  00000+0  25215-4 0  9998
2 55835  87.9150 314.9405 0001934  79.4824 280.6526 13.19724614152257
ONEWEB-0537             
1 56046U 23043A   26118.26460079  .00000061  00000+0  12567-3 0  9995
2 56046  87.9084 238.6859 0001745 107.0243 253.1079 13.16594661152393
ONEWEB-0538             
1 56047U 23043B   26118.25826429  .00000136  00000+0  32258-3 0  9992
2 56047  87.9085 238.6891 0001650  97.6708 262.4611 13.16592572152402
ONEWEB-0546             
1 56048U 23043C   26118.32159736  .00000130  00000+0  30672-3 0  9993
2 56048  87.9084 238.6761 0001609 122.6983 237.4303 13.16594355152407
ONEWEB-0547             
1 56049U 23043D   26118.28849148  .00000021  00000+0  20494-4 0  9993
2 56049  87.9228 253.9066 0001834  93.9830 266.1514 13.21825919151633
ONEWEB-0548             
1 56050U 23043E   26118.27012184  .00000027  00000+0  36559-4 0  9991
2 56050  87.9085 238.6838 0002356 107.1373 253.0016 13.16592993152396
ONEWEB-0549             
1 56051U 23043F   26118.13121771 -.00000017  00000+0 -71604-4 0  9991
2 56051  87.9216 253.9470 0001708  93.2189 266.9140 13.21827621151615
ONEWEB-0550             
1 56052U 23043G   26118.11776366  .00000046  00000+0  79058-4 0  9997
2 56052  87.9218 253.9462 0002155 103.4563 256.6812 13.21827467151616
ONEWEB-0551             
1 56053U 23043H   26118.10951859  .00000177  00000+0  43476-3 0  9998
2 56053  87.8952 269.2138 0001673  87.9984 272.1338 13.15548777149810
ONEWEB-0552             
1 56054U 23043J   26118.11271614  .00000047  00000+0  83462-4 0  9990
2 56054  87.9215 253.9540 0001975  94.7580 265.3780 13.21827393151611
ONEWEB-0553             
1 56055U 23043K   26118.32793074  .00000122  00000+0  28534-3 0  9995
2 56055  87.9085 238.6761 0001860 114.5091 245.6234 13.16595014152413
ONEWEB-0554             
1 56056U 23043L   26118.31526867  .00000078  00000+0  17168-3 0  9990
2 56056  87.9083 238.6882 0002173 107.1428 252.9941 13.16594245152394
ONEWEB-0555             
1 56057U 23043M   26118.27725481  .00000014  00000+0  24620-5 0  9992
2 56057  87.9087 238.6818 0001736 120.7042 239.4260 13.16592885152397
ONEWEB-0557             
1 56058U 23043N   26118.29151750  .00000012  00000+0 -30273-5 0  9997
2 56058  87.9081 238.6900 0002788 125.5071 234.6320 13.16594148152395
ONEWEB-0558             
1 56059U 23043P   26118.33305376 -.00000211  00000+0 -54294-3 0  9997
2 56059  87.9219 253.9037 0001750  85.9062 274.2272 13.21825588151652
